STARLINK-6312           
1 56536U 23065AK  25364.08648930  .00000374  00000+0  42737-4 0  9999
2 56536  43.0028 241.6455 0001078 274.3832  85.6887 15.02535599146003
STARLINK-6311           
1 56537U 23065AL  25364.02333690  .00001281  00000+0  10985-3 0  9995
2 56537  43.0031 242.0345 0001148 272.3316  87.7395 15.02538400145992
STARLINK-6314           
1 56538U 23065AM  25364.28975788  .00011968  00000+0  90063-3 0  9992
2 56538  43.0185 214.5431 0003395 259.4842 100.5618 15.02488342146339
STARLINK-6135           
1 56539U 23065AN  25364.01334757  .00000469  00000+0  49807-4 0  9994
2 56539  43.0021 241.9565 0000923 271.1922  88.8814 15.02541211145997
STARLINK-6136           
1 56540U 23065AP  25364.01002342  .00001149  00000+0  10012-3 0  9999
2 56540  43.0012 241.9407 0000925 279.5669  80.5068 15.02537555145992
STARLINK-6249           
1 56541U 23065AQ  25364.01113235  .00000104  00000+0  22749-4 0  9995
2 56541  43.0031 241.9431 0001245 265.9479  94.1221 15.02535352145990
STARLINK-6266           
1 56542U 23065AR  25364.01667967  .00001985  00000+0  16200-3 0  9994
2 56542  43.0029 241.9854 0001543 264.5745  95.4922 15.02536757145991
STARLINK-6226           
1 56544U 23065AT  25364.03543145  .00000366  00000+0  42126-4 0  9998
2 56544  43.0035 241.2760 0001078 272.7779  87.2940 15.02539061146003
STARLINK-6086           
1 56545U 23065AU  25364.06652091  .00010535  00000+0  79431-3 0  9990
2 56545  43.0010 241.4975 0000986 259.3620 100.7112 15.02509939146003
STARLINK-6187           
1 56546U 23065AV  25364.07428189 -.00000555  00000+0 -26005-4 0  9994
2 56546  43.0022 241.5576 0000922 273.9269  86.1468 15.02532456146007
STARLINK-6291           
1 56547U 23065AW  25364.09969134  .00001010  00000+0  89793-4 0  9995
2 56547  43.0027 240.8911 0000856 269.0372  91.0372 15.02536994146016
STARLINK-6244           
1 56548U 23065AX  25364.06984143 -.00000634  00000+0 -31897-4 0  9995
2 56548  43.0021 241.5220 0001205 272.6181  87.4523 15.02533700146007
STARLINK-6263           
1 56549U 23065AY  25364.05430444 -.00001573  00000+0 -10140-3 0  9995
2 56549  43.0021 241.4049 0001125 261.1578  98.9137 15.02529623146007
STARLINK-6255           
1 56550U 23065AZ  25364.06318382 -.00000385  00000+0 -13419-4 0  9997
2 56550  43.0025 241.4726 0001288 267.2081  92.8614 15.02531980146003
STARLINK-6199           
1 56551U 23065BA  25364.04985776  .00000226  00000+0  31806-4 0  9995
2 56551  43.0021 241.3702 0000943 264.5191  95.5544 15.02541622146008
STARLINK-5802           
1 56552U 23065BB  25364.05652198  .00000672  00000+0  64808-4 0  9999
2 56552  43.0027 241.4220 0001127 268.0248  92.0465 15.02535158146009
