[{"OBJECT_NAME":"STARLINK-6312","OBJECT_ID":"2023-065AK","EPOCH":"2025-12-30T02:04:32.675520","MEAN_MOTION":15.02535599,"ECCENTRICITY":0.00010782,"INCLINATION":43.0028,"RA_OF_ASC_NODE":241.6455,"ARG_OF_PERICENTER":274.3832,"MEAN_ANOMALY":85.6887,"EPHEMERIS_TYPE":0,"CLASSIFICATION_TYPE":"U","NORAD_CAT_ID":56536,"ELEMENT_SET_NO":999,"REV_AT_EPOCH":14600,"BSTAR":4.2737353e-5,"MEAN_MOTION_DOT":3.74e-6,"MEAN_MOTION_DDOT":0},{"OBJECT_NAME":"STARLINK-6311","OBJECT_ID":"2023-065AL","EPOCH":"2025-12-30T00:33:36.308160","MEAN_MOTION":15.025384,"ECCENTRICITY":0.00011489,"INCLINATION":43.0031,"RA_OF_ASC_NODE":242.0345,"ARG_OF_PERICENTER":272.3316,"MEAN_ANOMALY":87.7395,"EPHEMERIS_TYPE":0,"CLASSIFICATION_TYPE":"U","NORAD_CAT_ID":56537,"ELEMENT_SET_NO":999,"REV_AT_EPOCH":14599,"BSTAR":0.00010985042,"MEAN_MOTION_DOT":1.281e-5,"MEAN_MOTION_DDOT":0},{"OBJECT_NAME":"STARLINK-6314","OBJECT_ID":"2023-065AM","EPOCH":"2025-12-30T06:57:15.080832","MEAN_MOTION":15.02488342,"ECCENTRICITY":0.00033955,"INCLINATION":43.0185,"RA_OF_ASC_NODE":214.5431,"ARG_OF_PERICENTER":259.4842,"MEAN_ANOMALY":100.5618,"EPHEMERIS_TYPE":0,"CLASSIFICATION_TYPE":"U","NORAD_CAT_ID":56538,"ELEMENT_SET_NO":999,"REV_AT_EPOCH":14633,"BSTAR":0.00090063446,"MEAN_MOTION_DOT":0.00011968,"MEAN_MOTION_DDOT":0},{"OBJECT_NAME":"STARLINK-6135","OBJECT_ID":"2023-065AN","EPOCH":"2025-12-30T00:19:13.230048","MEAN_MOTION":15.02541211,"ECCENTRICITY":9.238e-5,"INCLINATION":43.0021,"RA_OF_ASC_NODE":241.9565,"ARG_OF_PERICENTER":271.1922,"MEAN_ANOMALY":88.8814,"EPHEMERIS_TYPE":0,"CLASSIFICATION_TYPE":"U","NORAD_CAT_ID":56539,"ELEMENT_SET_NO":999,"REV_AT_EPOCH":14599,"BSTAR":4.98068e-5,"MEAN_MOTION_DOT":4.69e-6,"MEAN_MOTION_DDOT":0},{"OBJECT_NAME":"STARLINK-6136","OBJECT_ID":"2023-065AP","EPOCH":"2025-12-30T00:14:26.023488","MEAN_MOTION":15.02537555,"ECCENTRICITY":9.258e-5,"INCLINATION":43.0012,"RA_OF_ASC_NODE":241.9407,"ARG_OF_PERICENTER":279.5669,"MEAN_ANOMALY":80.5068,"EPHEMERIS_TYPE":0,"CLASSIFICATION_TYPE":"U","NORAD_CAT_ID":56540,"ELEMENT_SET_NO":999,"REV_AT_EPOCH":14599,"BSTAR":0.00010012047,"MEAN_MOTION_DOT":1.149e-5,"MEAN_MOTION_DDOT":0},{"OBJECT_NAME":"STARLINK-6249","OBJECT_ID":"2023-065AQ","EPOCH":"2025-12-30T00:16:01.835040","MEAN_MOTION":15.02535352,"ECCENTRICITY":0.00012451,"INCLINATION":43.0031,"RA_OF_ASC_NODE":241.9431,"ARG_OF_PERICENTER":265.9479,"MEAN_ANOMALY":94.1221,"EPHEMERIS_TYPE":0,"CLASSIFICATION_TYPE":"U","NORAD_CAT_ID":56541,"ELEMENT_SET_NO":999,"REV_AT_EPOCH":14599,"BSTAR":2.2749323e-5,"MEAN_MOTION_DOT":1.04e-6,"MEAN_MOTION_DDOT":0},{"OBJECT_NAME":"STARLINK-6266","OBJECT_ID":"2023-065AR","EPOCH":"2025-12-30T00:24:01.123488","MEAN_MOTION":15.02536757,"ECCENTRICITY":0.00015432,"INCLINATION":43.0029,"RA_OF_ASC_NODE":241.9854,"ARG_OF_PERICENTER":264.5745,"MEAN_ANOMALY":95.4922,"EPHEMERIS_TYPE":0,"CLASSIFICATION_TYPE":"U","NORAD_CAT_ID":56542,"ELEMENT_SET_NO":999,"REV_AT_EPOCH":14599,"BSTAR":0.00016199814,"MEAN_MOTION_DOT":1.985e-5,"MEAN_MOTION_DDOT":0},{"OBJECT_NAME":"STARLINK-6226","OBJECT_ID":"2023-065AT","EPOCH":"2025-12-30T00:51:01.277280","MEAN_MOTION":15.02539061,"ECCENTRICITY":0.00010782,"INCLINATION":43.0035,"RA_OF_ASC_NODE":241.276,"ARG_OF_PERICENTER":272.7779,"MEAN_ANOMALY":87.294,"EPHEMERIS_TYPE":0,"CLASSIFICATION_TYPE":"U","NORAD_CAT_ID":56544,"ELEMENT_SET_NO":999,"REV_AT_EPOCH":14600,"BSTAR":4.2126456e-5,"MEAN_MOTION_DOT":3.66e-6,"MEAN_MOTION_DDOT":0},{"OBJECT_NAME":"STARLINK-6086","OBJECT_ID":"2023-065AU","EPOCH":"2025-12-30T01:35:47.406624","MEAN_MOTION":15.02509939,"ECCENTRICITY":9.868e-5,"INCLINATION":43.001,"RA_OF_ASC_NODE":241.4975,"ARG_OF_PERICENTER":259.362,"MEAN_ANOMALY":100.7112,"EPHEMERIS_TYPE":0,"CLASSIFICATION_TYPE":"U","NORAD_CAT_ID":56545,"ELEMENT_SET_NO":999,"REV_AT_EPOCH":14600,"BSTAR":0.00079430954,"MEAN_MOTION_DOT":0.00010535,"MEAN_MOTION_DDOT":0},{"OBJECT_NAME":"STARLINK-6187","OBJECT_ID":"2023-065AV","EPOCH":"2025-12-30T01:46:57.955296","MEAN_MOTION":15.02532456,"ECCENTRICITY":9.228e-5,"INCLINATION":43.0022,"RA_OF_ASC_NODE":241.5576,"ARG_OF_PERICENTER":273.9269,"MEAN_ANOMALY":86.1468,"EPHEMERIS_TYPE":0,"CLASSIFICATION_TYPE":"U","NORAD_CAT_ID":56546,"ELEMENT_SET_NO":999,"REV_AT_EPOCH":14600,"BSTAR":-2.6005102e-5,"MEAN_MOTION_DOT":-5.55e-6,"MEAN_MOTION_DDOT":0},{"OBJECT_NAME":"STARLINK-6291","OBJECT_ID":"2023-065AW","EPOCH":"2025-12-30T02:23:33.331776","MEAN_MOTION":15.02536994,"ECCENTRICITY":8.563e-5,"INCLINATION":43.0027,"RA_OF_ASC_NODE":240.8911,"ARG_OF_PERICENTER":269.0372,"MEAN_ANOMALY":91.0372,"EPHEMERIS_TYPE":0,"CLASSIFICATION_TYPE":"U","NORAD_CAT_ID":56547,"ELEMENT_SET_NO":999,"REV_AT_EPOCH":14601,"BSTAR":8.9793112e-5,"MEAN_MOTION_DOT":1.01e-5,"MEAN_MOTION_DDOT":0},{"OBJECT_NAME":"STARLINK-6244","OBJECT_ID":"2023-065AX","EPOCH":"2025-12-30T01:40:34.299552","MEAN_MOTION":15.025337,"ECCENTRICITY":0.00012057,"INCLINATION":43.0021,"RA_OF_ASC_NODE":241.522,"ARG_OF_PERICENTER":272.6181,"MEAN_ANOMALY":87.4523,"EPHEMERIS_TYPE":0,"CLASSIFICATION_TYPE":"U","NORAD_CAT_ID":56548,"ELEMENT_SET_NO":999,"REV_AT_EPOCH":14600,"BSTAR":-3.189697e-5,"MEAN_MOTION_DOT":-6.34e-6,"MEAN_MOTION_DDOT":0},{"OBJECT_NAME":"STARLINK-6263","OBJECT_ID":"2023-065AY","EPOCH":"2025-12-30T01:18:11.903616","MEAN_MOTION":15.02529623,"ECCENTRICITY":0.00011259,"INCLINATION":43.0021,"RA_OF_ASC_NODE":241.4049,"ARG_OF_PERICENTER":261.1578,"MEAN_ANOMALY":98.9137,"EPHEMERIS_TYPE":0,"CLASSIFICATION_TYPE":"U","NORAD_CAT_ID":56549,"ELEMENT_SET_NO":999,"REV_AT_EPOCH":14600,"BSTAR":-0.00010139666,"MEAN_MOTION_DOT":-1.573e-5,"MEAN_MOTION_DDOT":0},{"OBJECT_NAME":"STARLINK-6255","OBJECT_ID":"2023-065AZ","EPOCH":"2025-12-30T01:30:59.082048","MEAN_MOTION":15.0253198,"ECCENTRICITY":0.00012887,"INCLINATION":43.0025,"RA_OF_ASC_NODE":241.4726,"ARG_OF_PERICENTER":267.2081,"MEAN_ANOMALY":92.8614,"EPHEMERIS_TYPE":0,"CLASSIFICATION_TYPE":"U","NORAD_CAT_ID":56550,"ELEMENT_SET_NO":999,"REV_AT_EPOCH":14600,"BSTAR":-1.3418681e-5,"MEAN_MOTION_DOT":-3.85e-6,"MEAN_MOTION_DDOT":0},{"OBJECT_NAME":"STARLINK-6199","OBJECT_ID":"2023-065BA","EPOCH":"2025-12-30T01:11:47.710464","MEAN_MOTION":15.02541622,"ECCENTRICITY":9.432e-5,"INCLINATION":43.0021,"RA_OF_ASC_NODE":241.3702,"ARG_OF_PERICENTER":264.5191,"MEAN_ANOMALY":95.5544,"EPHEMERIS_TYPE":0,"CLASSIFICATION_TYPE":"U","NORAD_CAT_ID":56551,"ELEMENT_SET_NO":999,"REV_AT_EPOCH":14600,"BSTAR":3.1806178e-5,"MEAN_MOTION_DOT":2.26e-6,"MEAN_MOTION_DDOT":0},{"OBJECT_NAME":"STARLINK-5802","OBJECT_ID":"2023-065BB","EPOCH":"2025-12-30T01:21:23.499072","MEAN_MOTION":15.02535158,"ECCENTRICITY":0.00011279,"INCLINATION":43.0027,"RA_OF_ASC_NODE":241.422,"ARG_OF_PERICENTER":268.0248,"MEAN_ANOMALY":92.0465,"EPHEMERIS_TYPE":0,"CLASSIFICATION_TYPE":"U","NORAD_CAT_ID":56552,"ELEMENT_SET_NO":999,"REV_AT_EPOCH":14600,"BSTAR":6.4808085e-5,"MEAN_MOTION_DOT":6.72e-6,"MEAN_MOTION_DDOT":0}]
